IRIDIUM 36 [-]          
1 24967U 97056C   24069.53065106  .00000751  00000+0  24848-3 0  9993
2 24967  86.4022   8.1076 0002387  85.0206 275.1264 14.36666727385488
IRIDIUM 39 [-]          
1 25042U 97069D   24069.48922784  .00001237  00000+0  32868-3 0  9991
2 25042  86.3897  50.1968 0020401  60.5626 299.7610 14.47738321381698
IRIDIUM 38 [-]          
1 25043U 97069E   24069.49952079  .00000794  00000+0  26089-3 0  9998
2 25043  86.3906  68.5424 0002784 131.0670 229.0768 14.37103865379197
IRIDIUM 42 [-]          
1 25077U 97077A   24069.50447494  .00000620  00000+0  20922-3 0  9994
2 25077  86.3906  74.1468 0002160 106.4218 253.7216 14.35416417374518
IRIDIUM 44 [-]          
1 25078U 97077B   24069.45198198  .00000796  00000+0  25056-3 0  9990
2 25078  86.3921  57.3287 0004019 100.6117 259.5534 14.39239171376835
IRIDIUM 45 [-]          
1 25104U 97082A   24069.46516031  .00014047  00000+0  84681-3 0  9990
2 25104  86.3693 268.9606 0166592 241.2599 117.1809 14.99670648381897
IRIDIUM 24 [-]          
1 25105U 97082B   24069.52397823  .00000541  00000+0  16210-3 0  9991
2 25105  86.3859 277.0802 0011912 162.3074 197.8542 14.41010595376278
IRIDIUM 51 [-]          
1 25262U 98018A   24069.07268244  .00014556  00000+0  73430-3 0  9997
2 25262  86.3884 279.2632 0152556 189.8983 169.9243 15.07306987376317
